STARLINK-37043          
1 68246U 26054Q   26197.58335648  .00029491  00000+0  88099-3 0  9991
2 68246  53.1600  49.9902 0001214  99.9942 175.1962 15.34383630  5930
STARLINK-37044          
1 68247U 26054R   26196.98935019  .00008901  00000+0  27425-3 0  9992
2 68247  53.1600  52.5126 0001243  63.0900 297.0229 15.34399589 18751
STARLINK-36997          
1 68248U 26054S   26197.64233417  .00016421  00000+0  49599-3 0  9992
2 68248  53.1593  57.3351 0001889  55.8238 304.2943 15.34405445 18747
STARLINK-37141          
1 68249U 26054T   26197.30870776 -.00009867  00000+0 -28137-3 0  9994
2 68249  53.1585  50.9505 0001362  94.1636 265.9522 15.34388888 18807
STARLINK-37087          
1 68250U 26054U   26197.58335648  .00030556  00000+0  93693-3 0  9996
2 68250  53.1601  49.9948 0001176  99.6039 175.2218 15.33538651  5936
STARLINK-36274          
1 68251U 26054V   26197.61716734  .00033169  00000+0  98996-3 0  9994
2 68251  53.1589  57.8779 0001717  51.8762 308.2395 15.34352615 18737
STARLINK-37085          
1 68252U 26054W   26197.61134393  .00014586  00000+0  44201-3 0  9992
2 68252  53.1584  49.9842 0001245  98.2043 261.9101 15.34397392 18842
STARLINK-37086          
1 68253U 26054X   26196.95577308  .00008607  00000+0  26561-3 0  9992
2 68253  53.1589  53.0136 0000824  97.2976 262.8121 15.34395964 18740
STARLINK-37084          
1 68254U 26054Y   26197.61765492  .00018966  00000+0  57090-3 0  9990
2 68254  53.1579  50.0299 0001296  43.9839 316.1267 15.34408156 18840
STARLINK-37075          
1 68255U 26054Z   26197.01541989  .00007440  00000+0  22392-3 0  9990
2 68255  53.1589  52.6715 0001174  86.1507 273.9631 15.35410120 18759
STARLINK-36333          
1 68256U 26054AA  26197.61085871  .00013376  00000+0  40638-3 0  9998
2 68256  53.1600  57.8281 0001277  89.1245 270.9904 15.34394509 18734
STARLINK-36745          
1 68257U 26054AB  26197.61344204  .00011337  00000+0  34619-3 0  9994
2 68257  53.1582  49.9430 0001382 100.3212 259.7946 15.34396070 18847
STARLINK-36890          
1 68258U 26054AC  26196.97176376  .00003126  00000+0  11765-3 0  9990
2 68258  53.1580  60.9429 0001222  73.9637 286.1499 15.30189117 18638
STARLINK-36323          
1 68259U 26054AD  26197.58335648  .00039040  00000+0  11608-2 0  9997
2 68259  53.1602  49.9652 0001396  60.2262 226.4912 15.34394066  5676
STARLINK-37056          
1 68260U 26054AE  26196.98093531  .00011524  00000+0  35168-3 0  9999
2 68260  53.1591  52.4505 0001080  74.6376 285.4746 15.34400320 18750
STARLINK-37162          
1 68262U 26055A   26197.08727270  .00010681  00000+0  32668-3 0  9993
2 68262  53.1590  80.4285 0001209  83.0216 277.0924 15.34412063 19626
STARLINK-37156          
1 68263U 26055B   26196.96380802  .00010858  00000+0  33213-3 0  9999
2 68263  53.1578  82.5061 0001226 100.8209 259.2932 15.34390828 19587
STARLINK-37163          
1 68264U 26055C   26197.07045211  .00020707  00000+0  62193-3 0  9998
2 68264  53.1588  80.3266 0001034  92.3821 267.7300 15.34418633 19627
STARLINK-37133          
1 68265U 26055D   26196.97012257  .00010696  00000+0  32722-3 0  9992
2 68265  53.1578  82.5472 0001062  87.4434 272.6690 15.34401355 19581
STARLINK-37042          
1 68266U 26055E   26196.96542447  .00009520  00000+0  29251-3 0  9998
2 68266  53.1587  81.0926 0001244  97.7125 262.4019 15.34402689 19609
STARLINK-37103          
1 68267U 26055F   26196.97165397  .00020606  00000+0  61937-3 0  9990
2 68267  53.1580  80.4220 0001075  89.6594 270.4532 15.34398309 19618
STARLINK-36999          
1 68268U 26055G   26196.97585304  .00007471  00000+0  23203-3 0  9994
2 68268  53.1592  80.4176 0001247  82.6725 277.4419 15.34398896 19614
STARLINK-36962          
1 68269U 26055H   26196.98427178  .00008208  00000+0  25379-3 0  9995
2 68269  53.1582  80.4765 0001338  88.4918 271.6238 15.34401746 19611
STARLINK-37028          
1 68270U 26055J   26197.41346717  .00010879  00000+0  33292-3 0  9995
2 68270  53.1583  80.3334 0001387  92.0623 268.0538 15.34372276 19655
STARLINK-37029          
1 68271U 26055K   26196.99689830  .00015773  00000+0  47697-3 0  9996
2 68271  53.1584  80.5777 0001121  91.6615 268.4516 15.34399645 19617
STARLINK-36974          
1 68272U 26055L   26197.40723017  .00012278  00000+0  37398-3 0  9994
2 68272  53.1586  81.0330 0001707  86.5032 273.6165 15.34394864 19646
STARLINK-37019          
1 68273U 26055M   26196.94227654  .00009892  00000+0  30350-3 0  9998
2 68273  53.1588  80.9486 0002537 148.6547 211.4608 15.34403059 19607
STARLINK-37129          
1 68274U 26055N   26196.96121535  .00006414  00000+0  20085-3 0  9993
2 68274  53.1589  81.0573 0001507 103.0253 257.0918 15.34394298 19607
STARLINK-37123          
1 68275U 26055P   26196.95490479  .00010193  00000+0  31238-3 0  9990
2 68275  53.1586  81.0220 0001096  84.6719 275.4409 15.34400103 19600
STARLINK-37125          
1 68276U 26055Q   26197.08307312  .00009040  00000+0  27837-3 0  9998
2 68276  53.1585  80.3989 0001193  81.1219 278.9919 15.34398295 19623
