OBJECT_NAME,OBJECT_ID,EPOCH,MEAN_MOTION,ECCENTRICITY,INCLINATION,RA_OF_ASC_NODE,ARG_OF_PERICENTER,MEAN_ANOMALY,EPHEMERIS_TYPE,CLASSIFICATION_TYPE,NORAD_CAT_ID,ELEMENT_SET_NO,REV_AT_EPOCH,BSTAR,MEAN_MOTION_DOT,MEAN_MOTION_DDOT
STARLINK-37043,2026-054Q,2026-07-16T14:00:01.999872,15.34383630,.00012148,53.1600,49.9902,99.9942,175.1962,0,U,68246,999,593,.88098583E-3,.29491E-3,0
STARLINK-37044,2026-054R,2026-07-15T23:44:39.856416,15.34399589,.0001243,53.1600,52.5126,63.0900,297.0229,0,U,68247,999,1875,.27424701E-3,.8901E-4,0
STARLINK-36997,2026-054S,2026-07-16T15:24:57.672288,15.34405445,.00018898,53.1593,57.3351,55.8238,304.2943,0,U,68248,999,1874,.4959888E-3,.16421E-3,0
STARLINK-37141,2026-054T,2026-07-16T07:24:32.350464,15.34388888,.00013622,53.1585,50.9505,94.1636,265.9522,0,U,68249,999,1880,-.2813723E-3,-.9867E-4,0
STARLINK-37087,2026-054U,2026-07-16T14:00:01.999872,15.33538651,.00011767,53.1601,49.9948,99.6039,175.2218,0,U,68250,999,593,.93692569E-3,.30556E-3,0
STARLINK-36274,2026-054V,2026-07-16T14:48:43.258176,15.34352615,.00017173,53.1589,57.8779,51.8762,308.2395,0,U,68251,999,1873,.9899623E-3,.33169E-3,0
STARLINK-37085,2026-054W,2026-07-16T14:40:20.115552,15.34397392,.00012453,53.1584,49.9842,98.2043,261.9101,0,U,68252,999,1884,.44201263E-3,.14586E-3,0
STARLINK-37086,2026-054X,2026-07-15T22:56:18.794112,15.34395964,.00008243,53.1589,53.0136,97.2976,262.8121,0,U,68253,999,1874,.26560848E-3,.8607E-4,0
STARLINK-37084,2026-054Y,2026-07-16T14:49:25.385088,15.34408156,.00012962,53.1579,50.0299,43.9839,316.1267,0,U,68254,999,1884,.57089978E-3,.18966E-3,0
STARLINK-37075,2026-054Z,2026-07-16T00:22:12.278496,15.35410120,.00011744,53.1589,52.6715,86.1507,273.9631,0,U,68255,999,1875,.22392072E-3,.744E-4,0
STARLINK-36333,2026-054AA,2026-07-16T14:39:38.192544,15.34394509,.0001277,53.1600,57.8281,89.1245,270.9904,0,U,68256,999,1873,.4063788E-3,.13376E-3,0
STARLINK-36745,2026-054AB,2026-07-16T14:43:21.392256,15.34396070,.00013822,53.1582,49.9430,100.3212,259.7946,0,U,68257,999,1884,.34619471E-3,.11337E-3,0
STARLINK-36890,2026-054AC,2026-07-15T23:19:20.388864,15.30189117,.00012228,53.1580,60.9429,73.9637,286.1499,0,U,68258,999,1863,.11764916E-3,.3126E-4,0
STARLINK-36323,2026-054AD,2026-07-16T14:00:01.999872,15.34394066,.00013964,53.1602,49.9652,60.2262,226.4912,0,U,68259,999,567,.11607997E-2,.3904E-3,0
STARLINK-37056,2026-054AE,2026-07-15T23:32:32.810784,15.34400320,.00010807,53.1591,52.4505,74.6376,285.4746,0,U,68260,999,1875,.35167869E-3,.11524E-3,0
STARLINK-37162,2026-055A,2026-07-16T02:05:40.361280,15.34412063,.00012096,53.1590,80.4285,83.0216,277.0924,0,U,68262,999,1962,.32668478E-3,.10681E-3,0
STARLINK-37156,2026-055B,2026-07-15T23:07:53.012928,15.34390828,.00012269,53.1578,82.5061,100.8209,259.2932,0,U,68263,999,1958,.33213261E-3,.10858E-3,0
STARLINK-37163,2026-055C,2026-07-16T01:41:27.062304,15.34418633,.0001034,53.1588,80.3266,92.3821,267.7300,0,U,68264,999,1962,.62192709E-3,.20707E-3,0
STARLINK-37133,2026-055D,2026-07-15T23:16:58.590048,15.34401355,.00010625,53.1578,82.5472,87.4434,272.6690,0,U,68265,999,1958,.32722216E-3,.10696E-3,0
STARLINK-37042,2026-055E,2026-07-15T23:10:12.674208,15.34402689,.00012447,53.1587,81.0926,97.7125,262.4019,0,U,68266,999,1960,.29250731E-3,.952E-4,0
STARLINK-37103,2026-055F,2026-07-15T23:19:10.903008,15.34398309,.00010752,53.1580,80.4220,89.6594,270.4532,0,U,68267,999,1961,.61936608E-3,.20606E-3,0
STARLINK-36999,2026-055G,2026-07-15T23:25:13.702656,15.34398896,.00012478,53.1592,80.4176,82.6725,277.4419,0,U,68268,999,1961,.23203325E-3,.7471E-4,0
STARLINK-36962,2026-055H,2026-07-15T23:37:21.081792,15.34401746,.00013385,53.1582,80.4765,88.4918,271.6238,0,U,68269,999,1961,.25378884E-3,.8208E-4,0
STARLINK-37028,2026-055J,2026-07-16T09:55:23.563488,15.34372276,.00013871,53.1583,80.3334,92.0623,268.0538,0,U,68270,999,1965,.33292224E-3,.10879E-3,0
STARLINK-37029,2026-055K,2026-07-15T23:55:32.013120,15.34399645,.00011218,53.1584,80.5777,91.6615,268.4516,0,U,68271,999,1961,.47696619E-3,.15773E-3,0
STARLINK-36974,2026-055L,2026-07-16T09:46:24.686688,15.34394864,.00017075,53.1586,81.0330,86.5032,273.6165,0,U,68272,999,1964,.3739845E-3,.12278E-3,0
STARLINK-37019,2026-055M,2026-07-15T22:36:52.693056,15.34403059,.0002537,53.1588,80.9486,148.6547,211.4608,0,U,68273,999,1960,.3035E-3,.9892E-4,0
STARLINK-37129,2026-055N,2026-07-15T23:04:09.006240,15.34394298,.00015072,53.1589,81.0573,103.0253,257.0918,0,U,68274,999,1960,.20085442E-3,.6414E-4,0
STARLINK-37123,2026-055P,2026-07-15T22:55:03.773856,15.34400103,.00010963,53.1586,81.0220,84.6719,275.4409,0,U,68275,999,1960,.31238348E-3,.10193E-3,0
STARLINK-37125,2026-055Q,2026-07-16T01:59:37.517568,15.34398295,.0001193,53.1585,80.3989,81.1219,278.9919,0,U,68276,999,1962,.27837102E-3,.904E-4,0
